{
  "type": "FeatureCollection",
  "features": [
    {
      "type": "Feature",
      "properties": {
        "norad_id": 41890,
        "name": "CYGFM07",
        "group": "weather",
        "lat": 20.262099790060812,
        "lon": 113.29960325669855,
        "alt_km": 417.3653725867207,
        "timestamp": "2025-12-21T07:34:34.187672+00:00",
        "meta_object_name": "CYGFM07",
        "meta_object_id": "2016-078G",
        "meta_epoch": "2025-12-20T06:14:08.524032",
        "meta_mean_motion": 15.50300971,
        "meta_eccentricity": 0.0010083,
        "meta_inclination": 34.9485,
        "meta_ra_of_asc_node": 332.1364,
        "meta_arg_of_pericenter": 279.4388,
        "meta_mean_anomaly": 80.5194,
        "meta_ephemeris_type": 0,
        "meta_classification_type": "U",
        "meta_norad_cat_id": 41890,
        "meta_element_set_no": 999,
        "meta_rev_at_epoch": 50112,
        "meta_bstar": 0.00029061,
        "meta_mean_motion_dot": 0.00017004,
        "meta_mean_motion_ddot": 0,
        "tle_line1": "1 41890U 16078G   25354.25982088  .00017004  00000+0  29061-3 0  9997",
        "tle_line2": "2 41890  34.9485 332.1364 0010083 279.4388  80.5194 15.50300971501129"
      },
      "geometry": {
        "type": "Point",
        "coordinates": [
          113.29960325669855,
          20.262099790060812
        ]
      }
    },
    {
      "type": "Feature",
      "properties": {
        "norad_id": 41891,
        "name": "CYGFM03",
        "group": "weather",
        "lat": -14.335416035025641,
        "lon": -54.33390788485953,
        "alt_km": 413.0318733982067,
        "timestamp": "2025-12-21T07:34:34.187682+00:00",
        "meta_object_name": "CYGFM03",
        "meta_object_id": "2016-078H",
        "meta_epoch": "2025-12-20T05:24:41.761440",
        "meta_mean_motion": 15.50195944,
        "meta_eccentricity": 0.00096748,
        "meta_inclination": 34.9438,
        "meta_ra_of_asc_node": 334.2852,
        "meta_arg_of_pericenter": 266.9271,
        "meta_mean_anomaly": 93.0344,
        "meta_ephemeris_type": 0,
        "meta_classification_type": "U",
        "meta_norad_cat_id": 41891,
        "meta_element_set_no": 999,
        "meta_rev_at_epoch": 50109,
        "meta_bstar": 0.0002832892,
        "meta_mean_motion_dot": 0.00016509,
        "meta_mean_motion_ddot": 0,
        "tle_line1": "1 41891U 16078H   25354.22548335  .00016509  00000+0  28329-3 0  9993",
        "tle_line2": "2 41891  34.9438 334.2852 0009674 266.9271  93.0344 15.50195944501093"
      },
      "geometry": {
        "type": "Point",
        "coordinates": [
          -54.33390788485953,
          -14.335416035025641
        ]
      }
    },
    {
      "type": "Feature",
      "properties": {
        "norad_id": 43010,
        "name": "FENGYUN 3D",
        "group": "weather",
        "lat": -71.3591135179675,
        "lon": 113.7669323787555,
        "alt_km": 833.7918914664933,
        "timestamp": "2025-12-21T07:34:34.187692+00:00",
        "meta_object_name": "FENGYUN 3D",
        "meta_object_id": "2017-072A",
        "meta_epoch": "2025-12-20T21:55:41.235744",
        "meta_mean_motion": 14.19685191,
        "meta_eccentricity": 0.00013691,
        "meta_inclination": 98.9897,
        "meta_ra_of_asc_node": 321.3461,
        "meta_arg_of_pericenter": 157.9045,
        "meta_mean_anomaly": 202.219,
        "meta_ephemeris_type": 0,
        "meta_classification_type": "U",
        "meta_norad_cat_id": 43010,
        "meta_element_set_no": 999,
        "meta_rev_at_epoch": 41969,
        "meta_bstar": -5.8411751e-05,
        "meta_mean_motion_dot": -1.69e-06,
        "meta_mean_motion_ddot": 0,
        "tle_line1": "1 43010U 17072A   25354.91367171 -.00000169  00000+0 -58412-4 0  9990",
        "tle_line2": "2 43010  98.9897 321.3461 0001369 157.9045 202.2190 14.19685191419690"
      },
      "geometry": {
        "type": "Point",
        "coordinates": [
          113.7669323787555,
          -71.3591135179675
        ]
      }
    },
    {
      "type": "Feature",
      "properties": {
        "norad_id": 43013,
        "name": "NOAA 20 (JPSS-1)",
        "group": "weather",
        "lat": 40.16711618383479,
        "lon": -75.9601883642393,
        "alt_km": 822.4894815558546,
        "timestamp": "2025-12-21T07:34:34.187702+00:00",
        "meta_object_name": "NOAA 20 (JPSS-1)",
        "meta_object_id": "2017-073A",
        "meta_epoch": "2025-12-20T19:32:36.048768",
        "meta_mean_motion": 14.19527677,
        "meta_eccentricity": 0.00021242,
        "meta_inclination": 98.761,
        "meta_ra_of_asc_node": 291.0231,
        "meta_arg_of_pericenter": 75.6479,
        "meta_mean_anomaly": 284.4933,
        "meta_ephemeris_type": 0,
        "meta_classification_type": "U",
        "meta_norad_cat_id": 43013,
        "meta_element_set_no": 999,
        "meta_rev_at_epoch": 41916,
        "meta_bstar": 4.2786048e-05,
        "meta_mean_motion_dot": 4.6e-07,
        "meta_mean_motion_ddot": 0,
        "tle_line1": "1 43013U 17073A   25354.81430612  .00000046  00000+0  42786-4 0  9993",
        "tle_line2": "2 43013  98.7610 291.0231 0002124  75.6479 284.4933 14.19527677419162"
      },
      "geometry": {
        "type": "Point",
        "coordinates": [
          -75.9601883642393,
          40.16711618383479
        ]
      }
    },
    {
      "type": "Feature",
      "properties": {
        "norad_id": 43226,
        "name": "GOES 17",
        "group": "weather",
        "lat": 0.2277062932069709,
        "lon": 114.2538601287297,
        "alt_km": 35799.137564880664,
        "timestamp": "2025-12-21T07:34:34.187713+00:00",
        "meta_object_name": "GOES 17",
        "meta_object_id": "2018-022A",
        "meta_epoch": "2025-12-20T21:21:50.287968",
        "meta_mean_motion": 1.00270585,
        "meta_eccentricity": 0.00030884,
        "meta_inclination": 0.4774,
        "meta_ra_of_asc_node": 89.1403,
        "meta_arg_of_pericenter": 191.7312,
        "meta_mean_anomaly": 39.799,
        "meta_ephemeris_type": 0,
        "meta_classification_type": "U",
        "meta_norad_cat_id": 43226,
        "meta_element_set_no": 999,
        "meta_rev_at_epoch": 2863,
        "meta_bstar": 0,
        "meta_mean_motion_dot": -1.59e-06,
        "meta_mean_motion_ddot": 0,
        "tle_line1": "1 43226U 18022A   25354.89016537 -.00000159  00000+0  00000+0 0  9992",
        "tle_line2": "2 43226   0.4774  89.1403 0003088 191.7312  39.7990  1.00270585 28633"
      },
      "geometry": {
        "type": "Point",
        "coordinates": [
          114.2538601287297,
          0.2277062932069709
        ]
      }
    },
    {
      "type": "Feature",
      "properties": {
        "norad_id": 43491,
        "name": "FENGYUN 2H",
        "group": "weather",
        "lat": -0.985654496613085,
        "lon": -76.87905359751538,
        "alt_km": 35778.23271137318,
        "timestamp": "2025-12-21T07:34:34.187732+00:00",
        "meta_object_name": "FENGYUN 2H",
        "meta_object_id": "2018-050A",
        "meta_epoch": "2025-12-20T22:10:00.673824",
        "meta_mean_motion": 1.00271192,
        "meta_eccentricity": 0.000238,
        "meta_inclination": 2.571,
        "meta_ra_of_asc_node": 81.2441,
        "meta_arg_of_pericenter": 165.7512,
        "meta_mean_anomaly": 254.6089,
        "meta_ephemeris_type": 0,
        "meta_classification_type": "U",
        "meta_norad_cat_id": 43491,
        "meta_element_set_no": 999,
        "meta_rev_at_epoch": 2765,
        "meta_bstar": 0,
        "meta_mean_motion_dot": -1.08e-06,
        "meta_mean_motion_ddot": 0,
        "tle_line1": "1 43491U 18050A   25354.92361891 -.00000108  00000+0  00000+0 0  9991",
        "tle_line2": "2 43491   2.5710  81.2441 0002380 165.7512 254.6089  1.00271192 27655"
      },
      "geometry": {
        "type": "Point",
        "coordinates": [
          -76.87905359751538,
          -0.985654496613085
        ]
      }
    },
    {
      "type": "Feature",
      "properties": {
        "norad_id": 43689,
        "name": "METOP-C",
        "group": "weather",
        "lat": -61.03031546900913,
        "lon": -143.0868192347692,
        "alt_km": 827.9359563157068,
        "timestamp": "2025-12-21T07:34:34.187742+00:00",
        "meta_object_name": "METOP-C",
        "meta_object_id": "2018-087A",
        "meta_epoch": "2025-12-20T21:59:36.755232",
        "meta_mean_motion": 14.2148725,
        "meta_eccentricity": 8.516e-05,
        "meta_inclination": 98.6917,
        "meta_ra_of_asc_node": 52.5603,
        "meta_arg_of_pericenter": 25.1697,
        "meta_mean_anomaly": 334.9522,
        "meta_ephemeris_type": 0,
        "meta_classification_type": "U",
        "meta_norad_cat_id": 43689,
        "meta_element_set_no": 999,
        "meta_rev_at_epoch": 36950,
        "meta_bstar": 6.3805207e-05,
        "meta_mean_motion_dot": 9.6e-07,
        "meta_mean_motion_ddot": 0,
        "tle_line1": "1 43689U 18087A   25354.91639763  .00000096  00000+0  63805-4 0  9997",
        "tle_line2": "2 43689  98.6917  52.5603 0000851  25.1697 334.9522 14.21487250369502"
      },
      "geometry": {
        "type": "Point",
        "coordinates": [
          -143.0868192347692,
          -61.03031546900913
        ]
      }
    }
  ]
}